[{"icaoId":"RKSI","receiptTime":"2026-06-10T09:04:34.381Z","obsTime":1781082000,"reportTime":"2026-06-10T09:00:00.000Z","temp":20,"dewp":17,"wdir":240,"wspd":11,"visib":3.11,"altim":1008,"qcField":16,"wxString":"BR","metarType":"METAR","rawOb":"METAR RKSI 100900Z 24011KT 220V280 5000 BR NSC 20/17 Q1008 NOSIG","lat":37.469,"lon":126.451,"elev":7,"name":"Seoul/Incheon Intl, 28, KR","cover":"CLR","clouds":[],"fltCat":"MVFR"},{"icaoId":"RKSI","receiptTime":"2026-06-10T08:34:32.181Z","obsTime":1781080200,"reportTime":"2026-06-10T08:30:00.000Z","temp":21,"dewp":16,"wdir":260,"wspd":11,"visib":3.73,"altim":1008,"qcField":16,"metarType":"METAR","rawOb":"METAR RKSI 100830Z 26011KT 6000 NSC 21/16 Q1008 NOSIG","lat":37.469,"lon":126.451,"elev":7,"name":"Seoul/Incheon Intl, 28, KR","cover":"CLR","clouds":[],"fltCat":"MVFR"},{"icaoId":"RKSI","receiptTime":"2026-06-10T08:04:35.393Z","obsTime":1781078400,"reportTime":"2026-06-10T08:00:00.000Z","temp":22,"dewp":17,"wdir":240,"wspd":11,"visib":4.35,"altim":1008,"qcField":16,"metarType":"METAR","rawOb":"METAR RKSI 100800Z 24011KT 7000 NSC 22/17 Q1008 NOSIG","lat":37.469,"lon":126.451,"elev":7,"name":"Seoul/Incheon Intl, 28, KR","cover":"CLR","clouds":[],"fltCat":"MVFR"},{"icaoId":"RKSI","receiptTime":"2026-06-10T07:34:22.202Z","obsTime":1781076600,"reportTime":"2026-06-10T07:30:00.000Z","temp":23,"dewp":16,"wdir":230,"wspd":10,"visib":4.97,"altim":1008,"qcField":16,"metarType":"METAR","rawOb":"METAR RKSI 100730Z 23010KT 210V270 8000 NSC 23/16 Q1008 NOSIG","lat":37.469,"lon":126.451,"elev":7,"name":"Seoul/Incheon Intl, 28, KR","cover":"CLR","clouds":[],"fltCat":"MVFR"},{"icaoId":"RKSI","receiptTime":"2026-06-10T07:04:38.547Z","obsTime":1781074800,"reportTime":"2026-06-10T07:00:00.000Z","temp":22,"dewp":17,"wdir":230,"wspd":11,"visib":4.97,"altim":1008,"qcField":16,"metarType":"METAR","rawOb":"METAR RKSI 100700Z 23011KT 200V260 8000 NSC 22/17 Q1008 NOSIG","lat":37.469,"lon":126.451,"elev":7,"name":"Seoul/Incheon Intl, 28, KR","cover":"CLR","clouds":[],"fltCat":"MVFR"},{"icaoId":"RKSI","receiptTime":"2026-06-10T06:36:30.648Z","obsTime":1781073000,"reportTime":"2026-06-10T06:30:00.000Z","temp":23,"dewp":16,"wdir":230,"wspd":9,"visib":5.59,"altim":1009,"qcField":16,"metarType":"METAR","rawOb":"METAR RKSI 100630Z 23009KT 190V260 9000 NSC 23/16 Q1009 NOSIG","lat":37.469,"lon":126.451,"elev":7,"name":"Seoul/Incheon Intl, 28, KR","cover":"CLR","clouds":[],"fltCat":"VFR"},{"icaoId":"RKSI","receiptTime":"2026-06-10T06:06:35.176Z","obsTime":1781071200,"reportTime":"2026-06-10T06:00:00.000Z","temp":22,"dewp":17,"wdir":250,"wspd":8,"visib":5.59,"altim":1009,"qcField":16,"metarType":"METAR","rawOb":"METAR RKSI 100600Z 25008KT 210V330 9000 NSC 22/17 Q1009 NOSIG","lat":37.469,"lon":126.451,"elev":7,"name":"Seoul/Incheon Intl, 28, KR","cover":"CLR","clouds":[],"fltCat":"VFR"},{"icaoId":"RKSI","receiptTime":"2026-06-10T05:34:34.165Z","obsTime":1781069400,"reportTime":"2026-06-10T05:30:00.000Z","temp":23,"dewp":17,"wdir":250,"wspd":8,"visib":5.59,"altim":1009,"qcField":16,"metarType":"METAR","rawOb":"METAR RKSI 100530Z 25008KT 210V300 9000 NSC 23/17 Q1009 NOSIG","lat":37.469,"lon":126.451,"elev":7,"name":"Seoul/Incheon Intl, 28, KR","cover":"CLR","clouds":[],"fltCat":"VFR"},{"icaoId":"RKSI","receiptTime":"2026-06-10T05:04:33.812Z","obsTime":1781067600,"reportTime":"2026-06-10T05:00:00.000Z","temp":23,"dewp":17,"wdir":220,"wspd":10,"visib":4.97,"altim":1009,"qcField":16,"metarType":"METAR","rawOb":"METAR RKSI 100500Z 22010KT 190V260 8000 NSC 23/17 Q1009 NOSIG","lat":37.469,"lon":126.451,"elev":7,"name":"Seoul/Incheon Intl, 28, KR","cover":"CLR","clouds":[],"fltCat":"MVFR"},{"icaoId":"RKSI","receiptTime":"2026-06-10T04:34:29.617Z","obsTime":1781065800,"reportTime":"2026-06-10T04:30:00.000Z","temp":22,"dewp":17,"wdir":280,"wspd":9,"visib":4.97,"altim":1009,"qcField":16,"metarType":"METAR","rawOb":"METAR RKSI 100430Z 28009KT 250V310 8000 NSC 22/17 Q1009 NOSIG","lat":37.469,"lon":126.451,"elev":7,"name":"Seoul/Incheon Intl, 28, KR","cover":"CLR","clouds":[],"fltCat":"MVFR"},{"icaoId":"RKSI","receiptTime":"2026-06-10T04:04:48.056Z","obsTime":1781064000,"reportTime":"2026-06-10T04:00:00.000Z","temp":22,"dewp":17,"wdir":280,"wspd":8,"visib":4.97,"altim":1009,"qcField":16,"metarType":"METAR","rawOb":"METAR RKSI 100400Z 28008KT 250V310 8000 FEW020 22/17 Q1009 NOSIG","lat":37.469,"lon":126.451,"elev":7,"name":"Seoul/Incheon Intl, 28, KR","cover":"FEW","clouds":[{"cover":"FEW","base":2000}],"fltCat":"MVFR"},{"icaoId":"RKSI","receiptTime":"2026-06-10T03:34:35.920Z","obsTime":1781062200,"reportTime":"2026-06-10T03:30:00.000Z","temp":22,"dewp":17,"wdir":280,"wspd":8,"visib":4.97,"altim":1009,"qcField":16,"metarType":"METAR","rawOb":"METAR RKSI 100330Z 28008KT 240V320 8000 FEW020 22/17 Q1009 NOSIG","lat":37.469,"lon":126.451,"elev":7,"name":"Seoul/Incheon Intl, 28, KR","cover":"FEW","clouds":[{"cover":"FEW","base":2000}],"fltCat":"MVFR"},{"icaoId":"RKSI","receiptTime":"2026-06-10T03:04:29.083Z","obsTime":1781060400,"reportTime":"2026-06-10T03:00:00.000Z","temp":22,"dewp":18,"wdir":280,"wspd":6,"visib":4.35,"altim":1009,"qcField":16,"metarType":"METAR","rawOb":"METAR RKSI 100300Z 28006KT 220V360 7000 FEW015 22/18 Q1009 NOSIG","lat":37.469,"lon":126.451,"elev":7,"name":"Seoul/Incheon Intl, 28, KR","cover":"FEW","clouds":[{"cover":"FEW","base":1500}],"fltCat":"MVFR"},{"icaoId":"RKSI","receiptTime":"2026-06-10T02:34:33.235Z","obsTime":1781058600,"reportTime":"2026-06-10T02:30:00.000Z","temp":22,"dewp":18,"wdir":230,"wspd":5,"visib":4.35,"altim":1010,"qcField":16,"metarType":"METAR","rawOb":"METAR RKSI 100230Z 23005KT 7000 SCT015 22/18 Q1010 NOSIG","lat":37.469,"lon":126.451,"elev":7,"name":"Seoul/Incheon Intl, 28, KR","cover":"SCT","clouds":[{"cover":"SCT","base":1500}],"fltCat":"MVFR"},{"icaoId":"RKSI","receiptTime":"2026-06-10T02:04:25.053Z","obsTime":1781056800,"reportTime":"2026-06-10T02:00:00.000Z","temp":21,"dewp":17,"wdir":270,"wspd":6,"visib":4.97,"altim":1010,"qcField":16,"metarType":"METAR","rawOb":"METAR RKSI 100200Z 27006KT 190V330 8000 SCT015 21/17 Q1010 NOSIG","lat":37.469,"lon":126.451,"elev":7,"name":"Seoul/Incheon Intl, 28, KR","cover":"SCT","clouds":[{"cover":"SCT","base":1500}],"fltCat":"MVFR"},{"icaoId":"RKSI","receiptTime":"2026-06-10T01:34:38.792Z","obsTime":1781055000,"reportTime":"2026-06-10T01:30:00.000Z","temp":22,"dewp":18,"wdir":220,"wspd":4,"visib":4.97,"altim":1009,"qcField":16,"metarType":"METAR","rawOb":"METAR RKSI 100130Z 22004KT 160V270 8000 BKN014 22/18 Q1009 NOSIG","lat":37.469,"lon":126.451,"elev":7,"name":"Seoul/Incheon Intl, 28, KR","cover":"BKN","clouds":[{"cover":"BKN","base":1400}],"fltCat":"MVFR"},{"icaoId":"RKSI","receiptTime":"2026-06-10T01:04:35.841Z","obsTime":1781053200,"reportTime":"2026-06-10T01:00:00.000Z","temp":21,"dewp":17,"wdir":230,"wspd":4,"visib":4.97,"altim":1009,"qcField":16,"metarType":"METAR","rawOb":"METAR RKSI 100100Z 23004KT 160V310 8000 BKN015 21/17 Q1009 NOSIG","lat":37.469,"lon":126.451,"elev":7,"name":"Seoul/Incheon Intl, 28, KR","cover":"BKN","clouds":[{"cover":"BKN","base":1500}],"fltCat":"MVFR"},{"icaoId":"RKSI","receiptTime":"2026-06-10T00:34:36.093Z","obsTime":1781051400,"reportTime":"2026-06-10T00:30:00.000Z","temp":20,"dewp":17,"wdir":250,"wspd":5,"visib":4.97,"altim":1009,"qcField":16,"metarType":"METAR","rawOb":"METAR RKSI 100030Z 25005KT 220V320 8000 SCT006 BKN025 20/17 Q1009 NOSIG","lat":37.469,"lon":126.451,"elev":7,"name":"Seoul/Incheon Intl, 28, KR","cover":"BKN","clouds":[{"cover":"SCT","base":600},{"cover":"BKN","base":2500}],"fltCat":"MVFR"},{"icaoId":"RKSI","receiptTime":"2026-06-10T00:04:33.111Z","obsTime":1781049600,"reportTime":"2026-06-10T00:00:00.000Z","temp":19,"dewp":17,"wdir":250,"wspd":7,"visib":4.97,"altim":1009,"qcField":16,"metarType":"METAR","rawOb":"METAR RKSI 100000Z 25007KT 220V280 8000 SCT005 BKN025 19/17 Q1009 NOSIG","lat":37.469,"lon":126.451,"elev":7,"name":"Seoul/Incheon Intl, 28, KR","cover":"BKN","clouds":[{"cover":"SCT","base":500},{"cover":"BKN","base":2500}],"fltCat":"MVFR"},{"icaoId":"RKSI","receiptTime":"2026-06-09T23:34:31.852Z","obsTime":1781047800,"reportTime":"2026-06-09T23:30:00.000Z","temp":19,"dewp":17,"wdir":220,"wspd":8,"visib":"6+","altim":1009,"qcField":16,"metarType":"METAR","rawOb":"METAR RKSI 092330Z 22008KT 190V250 9999 SCT007 BKN035 19/17 Q1009 NOSIG","lat":37.469,"lon":126.451,"elev":7,"name":"Seoul/Incheon Intl, 28, KR","cover":"BKN","clouds":[{"cover":"SCT","base":700},{"cover":"BKN","base":3500}],"fltCat":"VFR"},{"icaoId":"RKSI","receiptTime":"2026-06-09T23:04:28.097Z","obsTime":1781046000,"reportTime":"2026-06-09T23:00:00.000Z","temp":19,"dewp":18,"wdir":250,"wspd":8,"visib":"6+","altim":1009,"qcField":16,"metarType":"METAR","rawOb":"METAR RKSI 092300Z 25008KT 9999 SCT009 BKN035 19/18 Q1009 NOSIG","lat":37.469,"lon":126.451,"elev":7,"name":"Seoul/Incheon Intl, 28, KR","cover":"BKN","clouds":[{"cover":"SCT","base":900},{"cover":"BKN","base":3500}],"fltCat":"VFR"},{"icaoId":"RKSI","receiptTime":"2026-06-09T22:34:40.461Z","obsTime":1781044200,"reportTime":"2026-06-09T22:30:00.000Z","temp":19,"dewp":17,"wdir":250,"wspd":8,"visib":"6+","altim":1009,"qcField":16,"metarType":"METAR","rawOb":"METAR RKSI 092230Z 25008KT 210V290 9999 FEW005 19/17 Q1009 NOSIG","lat":37.469,"lon":126.451,"elev":7,"name":"Seoul/Incheon Intl, 28, KR","cover":"FEW","clouds":[{"cover":"FEW","base":500}],"fltCat":"VFR"},{"icaoId":"RKSI","receiptTime":"2026-06-09T22:04:23.212Z","obsTime":1781042400,"reportTime":"2026-06-09T22:00:00.000Z","temp":19,"dewp":18,"wdir":190,"wspd":6,"visib":"6+","altim":1008,"qcField":16,"metarType":"METAR","rawOb":"METAR RKSI 092200Z 19006KT 9999 FEW010 19/18 Q1008 NOSIG","lat":37.469,"lon":126.451,"elev":7,"name":"Seoul/Incheon Intl, 28, KR","cover":"FEW","clouds":[{"cover":"FEW","base":1000}],"fltCat":"VFR"},{"icaoId":"RKSI","receiptTime":"2026-06-09T21:34:30.547Z","obsTime":1781040600,"reportTime":"2026-06-09T21:30:00.000Z","temp":19,"dewp":18,"wdir":180,"wspd":7,"visib":"6+","altim":1008,"qcField":16,"metarType":"METAR","rawOb":"METAR RKSI 092130Z 18007KT 9999 FEW010 19/18 Q1008 NOSIG","lat":37.469,"lon":126.451,"elev":7,"name":"Seoul/Incheon Intl, 28, KR","cover":"FEW","clouds":[{"cover":"FEW","base":1000}],"fltCat":"VFR"},{"icaoId":"RKSI","receiptTime":"2026-06-09T21:04:25.184Z","obsTime":1781038800,"reportTime":"2026-06-09T21:00:00.000Z","temp":18,"dewp":17,"wdir":180,"wspd":7,"visib":"6+","altim":1008,"qcField":16,"metarType":"METAR","rawOb":"METAR RKSI 092100Z 18007KT 160V220 9999 SCT010 18/17 Q1008 NOSIG","lat":37.469,"lon":126.451,"elev":7,"name":"Seoul/Incheon Intl, 28, KR","cover":"SCT","clouds":[{"cover":"SCT","base":1000}],"fltCat":"VFR"},{"icaoId":"RKSI","receiptTime":"2026-06-09T20:34:32.096Z","obsTime":1781037000,"reportTime":"2026-06-09T20:30:00.000Z","temp":18,"dewp":17,"wdir":180,"wspd":7,"visib":"6+","altim":1008,"qcField":16,"metarType":"METAR","rawOb":"METAR RKSI 092030Z 18007KT 160V220 9999 FEW010 BKN080 18/17 Q1008 NOSIG","lat":37.469,"lon":126.451,"elev":7,"name":"Seoul/Incheon Intl, 28, KR","cover":"BKN","clouds":[{"cover":"FEW","base":1000},{"cover":"BKN","base":8000}],"fltCat":"VFR"},{"icaoId":"RKSI","receiptTime":"2026-06-09T20:04:32.123Z","obsTime":1781035200,"reportTime":"2026-06-09T20:00:00.000Z","temp":18,"dewp":17,"wdir":180,"wspd":7,"visib":"6+","altim":1008,"qcField":16,"metarType":"METAR","rawOb":"METAR RKSI 092000Z 18007KT 9999 SCT010 OVC080 18/17 Q1008 NOSIG","lat":37.469,"lon":126.451,"elev":7,"name":"Seoul/Incheon Intl, 28, KR","cover":"OVC","clouds":[{"cover":"SCT","base":1000},{"cover":"OVC","base":8000}],"fltCat":"VFR"},{"icaoId":"RKSI","receiptTime":"2026-06-09T19:34:28.786Z","obsTime":1781033400,"reportTime":"2026-06-09T19:30:00.000Z","temp":18,"dewp":17,"wdir":190,"wspd":7,"visib":"6+","altim":1008,"qcField":16,"metarType":"METAR","rawOb":"METAR RKSI 091930Z 19007KT 140V220 9999 SCT010 OVC080 18/17 Q1008 NOSIG","lat":37.469,"lon":126.451,"elev":7,"name":"Seoul/Incheon Intl, 28, KR","cover":"OVC","clouds":[{"cover":"SCT","base":1000},{"cover":"OVC","base":8000}],"fltCat":"VFR"},{"icaoId":"RKSI","receiptTime":"2026-06-09T19:04:39.695Z","obsTime":1781031600,"reportTime":"2026-06-09T19:00:00.000Z","temp":18,"dewp":17,"wdir":210,"wspd":4,"visib":"6+","altim":1008,"qcField":16,"metarType":"METAR","rawOb":"METAR RKSI 091900Z 21004KT 9999 SCT010 OVC080 18/17 Q1008 NOSIG","lat":37.469,"lon":126.451,"elev":7,"name":"Seoul/Incheon Intl, 28, KR","cover":"OVC","clouds":[{"cover":"SCT","base":1000},{"cover":"OVC","base":8000}],"fltCat":"VFR"},{"icaoId":"RKSI","receiptTime":"2026-06-09T18:34:36.563Z","obsTime":1781029800,"reportTime":"2026-06-09T18:30:00.000Z","temp":18,"dewp":17,"wdir":210,"wspd":5,"visib":"6+","altim":1008,"qcField":16,"metarType":"METAR","rawOb":"METAR RKSI 091830Z 21005KT 9999 SCT010 BKN080 18/17 Q1008 NOSIG","lat":37.469,"lon":126.451,"elev":7,"name":"Seoul/Incheon Intl, 28, KR","cover":"BKN","clouds":[{"cover":"SCT","base":1000},{"cover":"BKN","base":8000}],"fltCat":"VFR"},{"icaoId":"RKSI","receiptTime":"2026-06-09T18:04:31.442Z","obsTime":1781028000,"reportTime":"2026-06-09T18:00:00.000Z","temp":19,"dewp":18,"wdir":220,"wspd":3,"visib":"6+","altim":1008,"qcField":16,"metarType":"METAR","rawOb":"METAR RKSI 091800Z 22003KT 9999 SCT010 BKN100 19/18 Q1008 NOSIG","lat":37.469,"lon":126.451,"elev":7,"name":"Seoul/Incheon Intl, 28, KR","cover":"BKN","clouds":[{"cover":"SCT","base":1000},{"cover":"BKN","base":10000}],"fltCat":"VFR"},{"icaoId":"RKSI","receiptTime":"2026-06-09T17:34:40.561Z","obsTime":1781026200,"reportTime":"2026-06-09T17:30:00.000Z","temp":18,"dewp":17,"wdir":210,"wspd":5,"visib":"6+","altim":1008,"qcField":16,"metarType":"METAR","rawOb":"METAR RKSI 091730Z 21005KT 9999 SCT010 BKN100 18/17 Q1008 NOSIG","lat":37.469,"lon":126.451,"elev":7,"name":"Seoul/Incheon Intl, 28, KR","cover":"BKN","clouds":[{"cover":"SCT","base":1000},{"cover":"BKN","base":10000}],"fltCat":"VFR"},{"icaoId":"RKSI","receiptTime":"2026-06-09T17:04:27.349Z","obsTime":1781024400,"reportTime":"2026-06-09T17:00:00.000Z","temp":18,"dewp":17,"wdir":250,"wspd":3,"visib":"6+","altim":1008,"qcField":16,"metarType":"METAR","rawOb":"METAR RKSI 091700Z 25003KT 9999 FEW010 SCT030 BKN100 18/17 Q1008 NOSIG","lat":37.469,"lon":126.451,"elev":7,"name":"Seoul/Incheon Intl, 28, KR","cover":"BKN","clouds":[{"cover":"FEW","base":1000},{"cover":"SCT","base":3000},{"cover":"BKN","base":10000}],"fltCat":"VFR"},{"icaoId":"RKSI","receiptTime":"2026-06-09T16:34:34.625Z","obsTime":1781022600,"reportTime":"2026-06-09T16:30:00.000Z","temp":18,"dewp":17,"wdir":240,"wspd":5,"visib":"6+","altim":1008,"qcField":16,"metarType":"METAR","rawOb":"METAR RKSI 091630Z 24005KT CAVOK 18/17 Q1008 NOSIG","lat":37.469,"lon":126.451,"elev":7,"name":"Seoul/Incheon Intl, 28, KR","cover":"CAVOK","clouds":[],"fltCat":"VFR"},{"icaoId":"RKSI","receiptTime":"2026-06-09T16:04:32.358Z","obsTime":1781020800,"reportTime":"2026-06-09T16:00:00.000Z","temp":18,"dewp":17,"wdir":260,"wspd":5,"visib":"6+","altim":1009,"qcField":16,"metarType":"METAR","rawOb":"METAR RKSI 091600Z 26005KT CAVOK 18/17 Q1009 NOSIG","lat":37.469,"lon":126.451,"elev":7,"name":"Seoul/Incheon Intl, 28, KR","cover":"CAVOK","clouds":[],"fltCat":"VFR"},{"icaoId":"RKSI","receiptTime":"2026-06-09T15:34:29.197Z","obsTime":1781019000,"reportTime":"2026-06-09T15:30:00.000Z","temp":18,"dewp":17,"wdir":250,"wspd":7,"visib":"6+","altim":1009,"qcField":16,"metarType":"METAR","rawOb":"METAR RKSI 091530Z 25007KT CAVOK 18/17 Q1009 NOSIG","lat":37.469,"lon":126.451,"elev":7,"name":"Seoul/Incheon Intl, 28, KR","cover":"CAVOK","clouds":[],"fltCat":"VFR"},{"icaoId":"RKSI","receiptTime":"2026-06-09T15:04:30.508Z","obsTime":1781017200,"reportTime":"2026-06-09T15:00:00.000Z","temp":19,"dewp":17,"wdir":240,"wspd":7,"visib":"6+","altim":1009,"qcField":16,"metarType":"METAR","rawOb":"METAR RKSI 091500Z 24007KT CAVOK 19/17 Q1009 NOSIG","lat":37.469,"lon":126.451,"elev":7,"name":"Seoul/Incheon Intl, 28, KR","cover":"CAVOK","clouds":[],"fltCat":"VFR"},{"icaoId":"RKSI","receiptTime":"2026-06-09T14:34:37.434Z","obsTime":1781015400,"reportTime":"2026-06-09T14:30:00.000Z","temp":19,"dewp":16,"wdir":240,"wspd":7,"visib":"6+","altim":1009,"qcField":16,"metarType":"METAR","rawOb":"METAR RKSI 091430Z 24007KT 200V280 CAVOK 19/16 Q1009 NOSIG","lat":37.469,"lon":126.451,"elev":7,"name":"Seoul/Incheon Intl, 28, KR","cover":"CAVOK","clouds":[],"fltCat":"VFR"},{"icaoId":"RKSI","receiptTime":"2026-06-09T14:04:32.207Z","obsTime":1781013600,"reportTime":"2026-06-09T14:00:00.000Z","temp":19,"dewp":16,"wdir":230,"wspd":7,"visib":"6+","altim":1009,"qcField":16,"metarType":"METAR","rawOb":"METAR RKSI 091400Z 23007KT CAVOK 19/16 Q1009 NOSIG","lat":37.469,"lon":126.451,"elev":7,"name":"Seoul/Incheon Intl, 28, KR","cover":"CAVOK","clouds":[],"fltCat":"VFR"},{"icaoId":"RKSI","receiptTime":"2026-06-09T13:34:46.766Z","obsTime":1781011800,"reportTime":"2026-06-09T13:30:00.000Z","temp":19,"dewp":15,"wdir":230,"wspd":6,"visib":"6+","altim":1009,"qcField":16,"metarType":"METAR","rawOb":"METAR RKSI 091330Z 23006KT 200V280 CAVOK 19/15 Q1009 NOSIG","lat":37.469,"lon":126.451,"elev":7,"name":"Seoul/Incheon Intl, 28, KR","cover":"CAVOK","clouds":[],"fltCat":"VFR"},{"icaoId":"RKSI","receiptTime":"2026-06-09T13:04:38.842Z","obsTime":1781010000,"reportTime":"2026-06-09T13:00:00.000Z","temp":19,"dewp":15,"wdir":230,"wspd":4,"visib":"6+","altim":1009,"qcField":16,"metarType":"METAR","rawOb":"METAR RKSI 091300Z 23004KT 200V270 CAVOK 19/15 Q1009 NOSIG","lat":37.469,"lon":126.451,"elev":7,"name":"Seoul/Incheon Intl, 28, KR","cover":"CAVOK","clouds":[],"fltCat":"VFR"},{"icaoId":"RKSI","receiptTime":"2026-06-09T12:34:29.080Z","obsTime":1781008200,"reportTime":"2026-06-09T12:30:00.000Z","temp":19,"dewp":15,"wdir":170,"wspd":2,"visib":"6+","altim":1008,"qcField":16,"metarType":"METAR","rawOb":"METAR RKSI 091230Z 17002KT CAVOK 19/15 Q1008 NOSIG","lat":37.469,"lon":126.451,"elev":7,"name":"Seoul/Incheon Intl, 28, KR","cover":"CAVOK","clouds":[],"fltCat":"VFR"},{"icaoId":"RKSI","receiptTime":"2026-06-09T12:04:32.752Z","obsTime":1781006400,"reportTime":"2026-06-09T12:00:00.000Z","temp":19,"dewp":15,"wdir":190,"wspd":7,"visib":"6+","altim":1008,"qcField":16,"metarType":"METAR","rawOb":"METAR RKSI 091200Z 19007KT 160V220 CAVOK 19/15 Q1008 NOSIG","lat":37.469,"lon":126.451,"elev":7,"name":"Seoul/Incheon Intl, 28, KR","cover":"CAVOK","clouds":[],"fltCat":"VFR"},{"icaoId":"RKSI","receiptTime":"2026-06-09T11:34:32.089Z","obsTime":1781004600,"reportTime":"2026-06-09T11:30:00.000Z","temp":19,"dewp":14,"wdir":220,"wspd":7,"visib":"6+","altim":1008,"qcField":16,"metarType":"METAR","rawOb":"METAR RKSI 091130Z 22007KT CAVOK 19/14 Q1008 NOSIG","lat":37.469,"lon":126.451,"elev":7,"name":"Seoul/Incheon Intl, 28, KR","cover":"CAVOK","clouds":[],"fltCat":"VFR"},{"icaoId":"RKSI","receiptTime":"2026-06-09T11:04:34.736Z","obsTime":1781002800,"reportTime":"2026-06-09T11:00:00.000Z","temp":20,"dewp":12,"wdir":240,"wspd":6,"visib":"6+","altim":1008,"qcField":16,"wxString":"-RA","metarType":"METAR","rawOb":"METAR RKSI 091100Z 24006KT 190V270 9999 -RA FEW045 BKN080 OVC120 20/12 Q1008 NOSIG","lat":37.469,"lon":126.451,"elev":7,"name":"Seoul/Incheon Intl, 28, KR","cover":"OVC","clouds":[{"cover":"FEW","base":4500},{"cover":"BKN","base":8000},{"cover":"OVC","base":12000}],"fltCat":"VFR"},{"icaoId":"RKSI","receiptTime":"2026-06-09T10:34:35.726Z","obsTime":1781001000,"reportTime":"2026-06-09T10:30:00.000Z","temp":19,"dewp":12,"wdir":270,"wspd":7,"visib":"6+","altim":1009,"qcField":16,"wxString":"-RA","metarType":"METAR","rawOb":"METAR RKSI 091030Z 27007KT 9999 -RA NSC 19/12 Q1009 NOSIG","lat":37.469,"lon":126.451,"elev":7,"name":"Seoul/Incheon Intl, 28, KR","cover":"CLR","clouds":[],"fltCat":"VFR"},{"icaoId":"RKSI","receiptTime":"2026-06-09T10:04:33.605Z","obsTime":1780999200,"reportTime":"2026-06-09T10:00:00.000Z","temp":19,"dewp":12,"wdir":280,"wspd":8,"visib":"6+","altim":1009,"qcField":16,"wxString":"-RA","metarType":"METAR","rawOb":"METAR RKSI 091000Z 28008KT 9999 -RA NSC 19/12 Q1009 NOSIG","lat":37.469,"lon":126.451,"elev":7,"name":"Seoul/Incheon Intl, 28, KR","cover":"CLR","clouds":[],"fltCat":"VFR"},{"icaoId":"RKSI","receiptTime":"2026-06-09T09:34:44.257Z","obsTime":1780997400,"reportTime":"2026-06-09T09:30:00.000Z","temp":20,"dewp":14,"wdir":290,"wspd":8,"visib":"6+","altim":1008,"qcField":16,"metarType":"METAR","rawOb":"METAR RKSI 090930Z 29008KT CAVOK 20/14 Q1008 NOSIG","lat":37.469,"lon":126.451,"elev":7,"name":"Seoul/Incheon Intl, 28, KR","cover":"CAVOK","clouds":[],"fltCat":"VFR"}]